[{"OBJECT_NAME":"DMSP 5D-3 F16 (USA 172)","OBJECT_ID":"2003-048A","EPOCH":"2026-04-05T07:06:04.692096","MEAN_MOTION":14.14472811,"ECCENTRICITY":0.00069758,"INCLINATION":98.996,"RA_OF_ASC_NODE":118.6211,"ARG_OF_PERICENTER":3.1082,"MEAN_ANOMALY":7.7462,"EPHEMERIS_TYPE":0,"CLASSIFICATION_TYPE":"U","NORAD_CAT_ID":28054,"ELEMENT_SET_NO":999,"REV_AT_EPOCH":15918,"BSTAR":0.00010874518,"MEAN_MOTION_DOT":1.63e-6,"MEAN_MOTION_DDOT":0},{"OBJECT_NAME":"METEOSAT-9 (MSG-2)","OBJECT_ID":"2005-049B","EPOCH":"2026-04-05T00:59:08.623392","MEAN_MOTION":1.00279027,"ECCENTRICITY":2.521e-5,"INCLINATION":9.1978,"RA_OF_ASC_NODE":54.8716,"ARG_OF_PERICENTER":23.6641,"MEAN_ANOMALY":175.2828,"EPHEMERIS_TYPE":0,"CLASSIFICATION_TYPE":"U","NORAD_CAT_ID":28912,"ELEMENT_SET_NO":999,"REV_AT_EPOCH":626,"BSTAR":0,"MEAN_MOTION_DOT":1.27e-6,"MEAN_MOTION_DDOT":0},{"OBJECT_NAME":"DMSP 5D-3 F17 (USA 191)","OBJECT_ID":"2006-050A","EPOCH":"2026-04-05T06:22:53.016960","MEAN_MOTION":14.14976703,"ECCENTRICITY":0.00088989,"INCLINATION":98.7409,"RA_OF_ASC_NODE":103.3221,"ARG_OF_PERICENTER":263.7481,"MEAN_ANOMALY":96.2679,"EPHEMERIS_TYPE":0,"CLASSIFICATION_TYPE":"U","NORAD_CAT_ID":29522,"ELEMENT_SET_NO":999,"REV_AT_EPOCH":211,"BSTAR":0.00014333442,"MEAN_MOTION_DOT":2.34e-6,"MEAN_MOTION_DDOT":0},{"OBJECT_NAME":"FENGYUN 3A","OBJECT_ID":"2008-026A","EPOCH":"2026-04-05T02:18:51.970176","MEAN_MOTION":14.19554927,"ECCENTRICITY":0.00084549,"INCLINATION":98.6833,"RA_OF_ASC_NODE":37.3188,"ARG_OF_PERICENTER":346.0992,"MEAN_ANOMALY":13.995,"EPHEMERIS_TYPE":0,"CLASSIFICATION_TYPE":"U","NORAD_CAT_ID":32958,"ELEMENT_SET_NO":999,"REV_AT_EPOCH":92503,"BSTAR":9.3579097e-5,"MEAN_MOTION_DOT":1.54e-6,"MEAN_MOTION_DDOT":0},{"OBJECT_NAME":"GOES 14","OBJECT_ID":"2009-033A","EPOCH":"2026-04-05T03:20:47.538240","MEAN_MOTION":1.0011195,"ECCENTRICITY":0.00018341,"INCLINATION":1.5015,"RA_OF_ASC_NODE":83.9263,"ARG_OF_PERICENTER":297.732,"MEAN_ANOMALY":44.8442,"EPHEMERIS_TYPE":0,"CLASSIFICATION_TYPE":"U","NORAD_CAT_ID":35491,"ELEMENT_SET_NO":999,"REV_AT_EPOCH":585,"BSTAR":0,"MEAN_MOTION_DOT":4.7e-7,"MEAN_MOTION_DDOT":0},{"OBJECT_NAME":"DMSP 5D-3 F18 (USA 210)","OBJECT_ID":"2009-057A","EPOCH":"2026-04-05T05:33:52.880256","MEAN_MOTION":14.14854022,"ECCENTRICITY":0.00122016,"INCLINATION":98.9001,"RA_OF_ASC_NODE":76.1793,"ARG_OF_PERICENTER":97.2885,"MEAN_ANOMALY":262.9675,"EPHEMERIS_TYPE":0,"CLASSIFICATION_TYPE":"U","NORAD_CAT_ID":35951,"ELEMENT_SET_NO":999,"REV_AT_EPOCH":84927,"BSTAR":0.00019561593,"MEAN_MOTION_DOT":3.33e-6,"MEAN_MOTION_DDOT":0},{"OBJECT_NAME":"EWS-G2 (GOES 15)","OBJECT_ID":"2010-008A","EPOCH":"2026-04-05T02:46:43.304736","MEAN_MOTION":1.00271739,"ECCENTRICITY":0.00033664,"INCLINATION":1.0857,"RA_OF_ASC_NODE":84.291,"ARG_OF_PERICENTER":17.7221,"MEAN_ANOMALY":196.3649,"EPHEMERIS_TYPE":0,"CLASSIFICATION_TYPE":"U","NORAD_CAT_ID":36411,"ELEMENT_SET_NO":999,"REV_AT_EPOCH":5890,"BSTAR":0,"MEAN_MOTION_DOT":2.4e-7,"MEAN_MOTION_DDOT":0},{"OBJECT_NAME":"COMS 1","OBJECT_ID":"2010-032A","EPOCH":"2026-04-05T06:30:36.576288","MEAN_MOTION":1.00272253,"ECCENTRICITY":0.00013361,"INCLINATION":4.6166,"RA_OF_ASC_NODE":76.3679,"ARG_OF_PERICENTER":324.7451,"MEAN_ANOMALY":18.2685,"EPHEMERIS_TYPE":0,"CLASSIFICATION_TYPE":"U","NORAD_CAT_ID":36744,"ELEMENT_SET_NO":999,"REV_AT_EPOCH":5035,"BSTAR":0,"MEAN_MOTION_DOT":-3.41e-6,"MEAN_MOTION_DDOT":0},{"OBJECT_NAME":"FENGYUN 3B","OBJECT_ID":"2010-059A","EPOCH":"2026-04-05T07:43:42.179808","MEAN_MOTION":14.1482643,"ECCENTRICITY":0.00226869,"INCLINATION":98.9705,"RA_OF_ASC_NODE":141.0003,"ARG_OF_PERICENTER":35.7203,"MEAN_ANOMALY":27.0002,"EPHEMERIS_TYPE":0,"CLASSIFICATION_TYPE":"U","NORAD_CAT_ID":37214,"ELEMENT_SET_NO":999,"REV_AT_EPOCH":79712,"BSTAR":0.00021079447,"MEAN_MOTION_DOT":3.62e-6,"MEAN_MOTION_DDOT":0},{"OBJECT_NAME":"SUOMI NPP","OBJECT_ID":"2011-061A","EPOCH":"2026-04-05T05:54:20.332224","MEAN_MOTION":14.19501168,"ECCENTRICITY":0.00020494,"INCLINATION":98.7904,"RA_OF_ASC_NODE":36.6421,"ARG_OF_PERICENTER":142.5803,"MEAN_ANOMALY":217.5516,"EPHEMERIS_TYPE":0,"CLASSIFICATION_TYPE":"U","NORAD_CAT_ID":37849,"ELEMENT_SET_NO":999,"REV_AT_EPOCH":74809,"BSTAR":8.585865e-5,"MEAN_MOTION_DOT":1.37e-6,"MEAN_MOTION_DDOT":0},{"OBJECT_NAME":"METEOSAT-10 (MSG-3)","OBJECT_ID":"2012-035B","EPOCH":"2026-04-05T05:54:02.582208","MEAN_MOTION":1.00273516,"ECCENTRICITY":0.0002412,"INCLINATION":4.4996,"RA_OF_ASC_NODE":61.3216,"ARG_OF_PERICENTER":296.9339,"MEAN_ANOMALY":283.8759,"EPHEMERIS_TYPE":0,"CLASSIFICATION_TYPE":"U","NORAD_CAT_ID":38552,"ELEMENT_SET_NO":999,"REV_AT_EPOCH":5012,"BSTAR":0,"MEAN_MOTION_DOT":-4.0e-8,"MEAN_MOTION_DDOT":0},{"OBJECT_NAME":"METOP-B","OBJECT_ID":"2012-049A","EPOCH":"2026-04-05T06:20:10.341312","MEAN_MOTION":14.21427867,"ECCENTRICITY":0.00024748,"INCLINATION":98.6584,"RA_OF_ASC_NODE":148.1921,"ARG_OF_PERICENTER":169.7239,"MEAN_ANOMALY":190.399,"EPHEMERIS_TYPE":0,"CLASSIFICATION_TYPE":"U","NORAD_CAT_ID":38771,"ELEMENT_SET_NO":999,"REV_AT_EPOCH":70290,"BSTAR":0.00010351737,"MEAN_MOTION_DOT":1.83e-6,"MEAN_MOTION_DDOT":0},{"OBJECT_NAME":"INSAT-3D","OBJECT_ID":"2013-038B","EPOCH":"2026-04-05T06:30:59.040288","MEAN_MOTION":1.00271699,"ECCENTRICITY":0.00017456,"INCLINATION":1.7378,"RA_OF_ASC_NODE":83.4509,"ARG_OF_PERICENTER":266.9238,"MEAN_ANOMALY":70.4323,"EPHEMERIS_TYPE":0,"CLASSIFICATION_TYPE":"U","NORAD_CAT_ID":39216,"ELEMENT_SET_NO":999,"REV_AT_EPOCH":4634,"BSTAR":0,"MEAN_MOTION_DOT":-3.37e-6,"MEAN_MOTION_DDOT":0},{"OBJECT_NAME":"FENGYUN 3C","OBJECT_ID":"2013-052A","EPOCH":"2026-04-05T05:59:18.469248","MEAN_MOTION":14.15737897,"ECCENTRICITY":0.00136914,"INCLINATION":98.4931,"RA_OF_ASC_NODE":72.4966,"ARG_OF_PERICENTER":230.6529,"MEAN_ANOMALY":129.3433,"EPHEMERIS_TYPE":0,"CLASSIFICATION_TYPE":"U","NORAD_CAT_ID":39260,"ELEMENT_SET_NO":999,"REV_AT_EPOCH":64824,"BSTAR":0.00010431759,"MEAN_MOTION_DOT":1.63e-6,"MEAN_MOTION_DDOT":0},{"OBJECT_NAME":"METEOR-M 2","OBJECT_ID":"2014-037A","EPOCH":"2026-04-05T05:18:08.377056","MEAN_MOTION":14.21440272,"ECCENTRICITY":0.00045554,"INCLINATION":98.5065,"RA_OF_ASC_NODE":73.5665,"ARG_OF_PERICENTER":245.9546,"MEAN_ANOMALY":114.1155,"EPHEMERIS_TYPE":0,"CLASSIFICATION_TYPE":"U","NORAD_CAT_ID":40069,"ELEMENT_SET_NO":999,"REV_AT_EPOCH":60895,"BSTAR":0.00017679834,"MEAN_MOTION_DOT":3.44e-6,"MEAN_MOTION_DDOT":0},{"OBJECT_NAME":"HIMAWARI-8","OBJECT_ID":"2014-060A","EPOCH":"2026-04-05T06:34:06.239712","MEAN_MOTION":1.00273836,"ECCENTRICITY":0.00010102,"INCLINATION":0.0166,"RA_OF_ASC_NODE":178.9139,"ARG_OF_PERICENTER":185.4512,"MEAN_ANOMALY":68.3911,"EPHEMERIS_TYPE":0,"CLASSIFICATION_TYPE":"U","NORAD_CAT_ID":40267,"ELEMENT_SET_NO":999,"REV_AT_EPOCH":4202,"BSTAR":0,"MEAN_MOTION_DOT":-2.74e-6,"MEAN_MOTION_DDOT":0},{"OBJECT_NAME":"FENGYUN 2G","OBJECT_ID":"2014-090A","EPOCH":"2026-04-05T06:01:51.715200","MEAN_MOTION":1.00291385,"ECCENTRICITY":0.0002385,"INCLINATION":5.4547,"RA_OF_ASC_NODE":73.684,"ARG_OF_PERICENTER":135.5167,"MEAN_ANOMALY":174.1867,"EPHEMERIS_TYPE":0,"CLASSIFICATION_TYPE":"U","NORAD_CAT_ID":40367,"ELEMENT_SET_NO":999,"REV_AT_EPOCH":4126,"BSTAR":0,"MEAN_MOTION_DOT":-3.0e-6,"MEAN_MOTION_DDOT":0}]
